{
"type": "FeatureCollection",
"name": "OrtaOsiyoCh",
"crs": { "type": "name", "properties": { "name": "urn:ogc:def:crs:OGC:1.3:CRS84" } },
"features": [
{ "type": "Feature", "properties": { "Id": 0 }, "geometry": { "type": "MultiPolygon", "coordinates": [ [ [ [ 68.599391695570375, 35.175841906578846 ], [ 68.620828375629074, 35.18835872657408 ], [ 68.645683484005701, 35.17666358655535 ], [ 68.670984406105504, 35.17547781874643 ], [ 68.685441411791771, 35.174797880917545 ], [ 68.707750347900344, 35.182677021227612 ], [ 68.776839729869778, 35.185344744064821 ], [ 68.8242449473465, 35.189020686055891 ], [ 68.892904094548385, 35.185687738298547 ], [ 68.910970412354686, 35.18480422363605 ], [ 68.870153209103407, 35.171911621024591 ], [ 68.811284028635072, 35.159874679273081 ], [ 68.778557656210964, 35.158468294276439 ], [ 68.75326676424983, 35.159676025328316 ], [ 68.727974370420924, 35.160878512433499 ], [ 68.691839787776019, 35.162587252199977 ], [ 68.652294256474875, 35.16742220986719 ], [ 68.602102768428139, 35.17571614988055 ], [ 68.599391695570375, 35.175841906578846 ] ] ], [ [ [ 68.620828375629074, 35.18835872657408 ], [ 68.603533355080401, 35.196491835429981 ], [ 68.610969372438703, 35.199123840792709 ], [ 68.62543206993422, 35.198450674858869 ], [ 68.636484468983085, 35.200912450249426 ], [ 68.632457707757112, 35.195145650151709 ], [ 68.620828375629074, 35.18835872657408 ] ] ], [ [ [ 68.599391695570375, 35.175841906578846 ], [ 68.594669214312859, 35.173083365704812 ], [ 68.5727774062523, 35.17111822112912 ], [ 68.569162660428489, 35.171284989610633 ], [ 68.558318246689851, 35.171784650241463 ], [ 68.536628618815826, 35.172781078384126 ], [ 68.533013577115, 35.172946774873807 ], [ 68.529398506635857, 35.173112363444929 ], [ 68.522168276644777, 35.173443219529062 ], [ 68.473772083614875, 35.15480304522444 ], [ 68.45188522182562, 35.152815194565605 ], [ 68.425791229881355, 35.142079110462625 ], [ 68.403514303342547, 35.134144170816832 ], [ 68.384463218902496, 35.120105581907161 ], [ 68.310832400894625, 35.102518076647989 ], [ 68.206810053741023, 35.062371488853202 ], [ 68.162712770278205, 35.052348862110343 ], [ 68.115941196229329, 35.057313887825707 ], [ 68.061752009447716, 35.059593170088817 ], [ 68.007556770228803, 35.061848367608214 ], [ 67.953175628552444, 35.061108337979526 ], [ 67.945768981253593, 35.058432795537172 ], [ 67.920474495601511, 35.059464004959914 ], [ 67.884159901957958, 35.057956609909709 ], [ 67.847669297500133, 35.053466570126176 ], [ 67.803953934526589, 35.049252254388101 ], [ 67.796726349441599, 35.049538906095719 ], [ 67.76041405536445, 35.047993742217535 ], [ 67.702246307421248, 35.044309640677433 ], [ 67.687619602362815, 35.041898017779431 ], [ 67.629455461600386, 35.038178255422274 ], [ 67.582302595688276, 35.036992996629564 ], [ 67.538104858852194, 35.02376202319892 ], [ 67.487180670651497, 35.019701184861859 ], [ 67.424935177116794, 35.007094885920324 ], [ 67.36695229381337, 35.006219551491206 ], [ 67.334424545656333, 35.007387666507654 ], [ 67.29058462118337, 35.000009793017554 ], [ 67.236215757051596, 34.998943257325529 ], [ 67.181997350397509, 35.000826551903948 ], [ 67.145848965857141, 35.0020686757289 ], [ 67.120543784568071, 35.002931779378159 ], [ 67.106083199580056, 35.003422621257037 ], [ 66.802194240272044, 35.010357781886185 ], [ 66.805673027488297, 35.007268528819672 ], [ 66.823478847670756, 35.000748041988579 ], [ 66.866452640477064, 34.990444875330866 ], [ 66.862836954861621, 34.990560142336761 ], [ 66.783286695724499, 34.993068861438907 ], [ 66.76882196036523, 34.993519408294112 ], [ 66.710556336505761, 34.986376200301443 ], [ 66.706805847911596, 34.98351072733827 ], [ 66.699439679997283, 34.980755495070063 ], [ 66.666762488797872, 34.978767805390014 ], [ 66.611735382082287, 34.962537399581436 ], [ 66.550011985464835, 34.958398871510795 ], [ 66.492034098794733, 34.957101307179698 ], [ 66.444653884269357, 34.949514437541389 ], [ 66.401019387434843, 34.944784346220722 ], [ 66.303034672112531, 34.938549245751098 ], [ 66.212289813124471, 34.932042934034243 ], [ 66.164597923255613, 34.915411009710425 ], [ 66.124491856214334, 34.907507307116596 ], [ 66.059420926634587, 34.909164354751262 ], [ 65.990621147947664, 34.907897425825581 ], [ 65.936282647626115, 34.906242536563866 ], [ 65.892791236526421, 34.904305308743126 ], [ 65.823685191018797, 34.894007286207348 ], [ 65.783714855056601, 34.888967595178492 ], [ 65.743550378846976, 34.877956575735418 ], [ 65.714533148685973, 34.875627153570392 ], [ 65.674769149576719, 34.876509067439528 ], [ 65.595236031517743, 34.8782339356477 ], [ 65.522927414768503, 34.879756908754352 ], [ 65.468959939649594, 34.889809802180679 ], [ 65.465343778292834, 34.889883237221746 ], [ 65.396374559238581, 34.882318753507754 ], [ 65.309086139313933, 34.866119581153839 ], [ 65.269232561433611, 34.863888638350097 ], [ 65.178761641336763, 34.862562417121971 ], [ 65.091981383334257, 34.864086950552405 ], [ 64.997962240265281, 34.865668701549431 ], [ 64.936484293815212, 34.866663650307302 ], [ 64.849686871352105, 34.868015406885526 ], [ 64.806286025579638, 34.868668067377492 ], [ 64.719480230428388, 34.869926944672784 ], [ 64.632551307297049, 34.865161511794433 ], [ 64.563827303687191, 34.866064958131375 ], [ 64.484248411934757, 34.86706255449343 ], [ 64.426370449836469, 34.8677553814058 ], [ 64.350353948975652, 34.865641355863978 ], [ 64.24182707216174, 34.866798275220297 ], [ 64.165854701933043, 34.867550504152504 ], [ 64.10796915135532, 34.86809178091103 ], [ 64.010101600608465, 34.854033013013193 ], [ 63.970239931527715, 34.848393054196151 ], [ 63.952153914971234, 34.848535994240841 ], [ 63.948502478606585, 34.845582257315392 ], [ 63.955736649426925, 34.8455256252075 ], [ 63.926766413339351, 34.842767550182423 ], [ 63.901284846218743, 34.828047598018316 ], [ 63.857764369030491, 34.81643301477186 ], [ 63.832452912272117, 34.816608823238667 ], [ 63.752901242998007, 34.81712709174198 ], [ 63.684122015618584, 34.808586189800913 ], [ 63.637094511602456, 34.805859122500578 ], [ 63.59732241409818, 34.806060842234203 ], [ 63.535855701979187, 34.806347024495651 ], [ 63.492466935001133, 34.806530345898864 ], [ 63.438230452873128, 34.806737743052445 ], [ 63.373145992093924, 34.806954714388631 ], [ 63.344219352441272, 34.807039972816597 ], [ 63.286365733192142, 34.807189863721348 ], [ 63.221279952208107, 34.807325616384148 ], [ 63.159809697659476, 34.807421864527562 ], [ 63.091107364113668, 34.807492691534577 ], [ 63.029636703071432, 34.80752318664581 ], [ 62.96093415009102, 34.807520525551887 ], [ 62.910311256359435, 34.807493745539993 ], [ 62.856077732101724, 34.804459261186068 ], [ 62.8018411474511, 34.80438303554871 ], [ 62.769332535068543, 34.792396050237599 ], [ 62.765717301812053, 34.792389145242893 ], [ 62.664539640691928, 34.780222649855467 ], [ 62.595890331173955, 34.774049279750493 ], [ 62.581432856041602, 34.774000432174283 ], [ 62.577818493328834, 34.773987952282233 ], [ 62.545338396649768, 34.764923734842583 ], [ 62.480287682031012, 34.764663450358043 ], [ 62.433307158598573, 34.764453856160578 ], [ 62.353802830536296, 34.76405786487868 ], [ 62.324892564840056, 34.763900998832128 ], [ 62.263459020617397, 34.763544869100464 ], [ 62.16227685569239, 34.762890745411653 ], [ 62.046644369741934, 34.762040240364904 ], [ 61.963536669581714, 34.76136112811367 ], [ 61.898497869181369, 34.760790093687973 ], [ 61.819008573287135, 34.760044999077515 ], [ 61.735909360029027, 34.759210573908909 ], [ 61.667264837602218, 34.758478507776928 ], [ 61.641530548396126, 34.76084489477617 ], [ 61.638362632529606, 34.758158698065593 ], [ 61.551762950300017, 34.751195120658359 ], [ 61.486742638162326, 34.750404371964279 ], [ 61.443229312382961, 34.75880199031964 ], [ 61.356118845808147, 34.778531011597018 ], [ 61.254702453355634, 34.789046745610889 ], [ 61.164171260695234, 34.796660299033626 ], [ 61.073557178421076, 34.807186670228766 ], [ 60.971934846615973, 34.823425541355661 ], [ 60.909663571316806, 34.855170113110297 ], [ 60.891357484360462, 34.863799060478314 ], [ 60.829810019416954, 34.865697417801648 ], [ 60.804261466293731, 34.874183470990424 ], [ 60.760625633066624, 34.882332056279438 ], [ 60.720351603243969, 34.899472591287136 ], [ 60.672573447706547, 34.925400376825962 ], [ 60.646736268863819, 34.942791448566531 ], [ 60.584344054534576, 34.971380538481164 ], [ 60.554853742306456, 34.988678444954317 ], [ 60.488592669716077, 35.023101267909233 ], [ 60.451263612925445, 35.05809819557539 ], [ 60.414372877606283, 35.078185818820536 ], [ 60.366206236528676, 35.109941991829523 ], [ 60.322214949860133, 35.12388342877734 ], [ 60.285561260543794, 35.134992054339868 ], [ 60.241645000716346, 35.145924086327611 ], [ 60.197206652065439, 35.171733004874369 ], [ 60.171400673402395, 35.183056762659596 ], [ 60.145587800536639, 35.194374654167056 ], [ 60.10472349709174, 35.220232309673435 ], [ 60.082199896408163, 35.240557536501164 ], [ 60.083206634378747, 35.241433513945523 ], [ 60.030725024540352, 35.257189778285706 ], [ 59.964148555211736, 35.288325114212689 ], [ 59.944868231783545, 35.317646930361583 ], [ 59.922164960044952, 35.340916546561459 ], [ 59.906718951918201, 35.364367644151514 ], [ 59.872852427097868, 35.393301961316574 ], [ 59.842482910657914, 35.42529823802338 ], [ 59.812088930859595, 35.457285464852355 ], [ 59.811265454037574, 35.478127799158706 ], [ 59.803513393328487, 35.48984481068959 ], [ 59.799872858545697, 35.489748218105881 ], [ 59.759109945567666, 35.506542326167427 ], [ 59.729739728805562, 35.511709916079852 ], [ 59.69271676976323, 35.525601782396429 ], [ 59.66636190877518, 35.545738418693148 ], [ 59.621902296553806, 35.562381983841533 ], [ 59.584459766005494, 35.585168477043624 ], [ 59.572638510458965, 35.605694694254801 ], [ 59.579928410467851, 35.605902059932234 ], [ 59.587471459740158, 35.600155516164193 ], [ 59.564329183045452, 35.629300152380146 ], [ 59.518898615079117, 35.666737496538296 ], [ 59.463136505945045, 35.688951943577415 ], [ 59.417758955711321, 35.723369920085794 ], [ 59.365446895957561, 35.748619734613115 ], [ 59.312277329934879, 35.791699259813022 ], [ 59.288977570258758, 35.82078094888174 ], [ 59.269594177329452, 35.844019509692686 ], [ 59.25793053156886, 35.858555888643458 ], [ 59.244713396088201, 35.862125098725343 ], [ 58.047888921570902, 36.135684978614961 ], [ 57.351151409645915, 36.345455412312859 ], [ 56.781774518180285, 36.555225846010671 ], [ 56.407184458005553, 36.720045472487591 ], [ 56.089882722689012, 36.984463585251333 ], [ 56.012322210901345, 36.942589808472974 ], [ 55.90240362512727, 36.928898710407225 ], [ 55.841500778937871, 36.914515238687422 ], [ 55.748648175273154, 36.862448085011216 ], [ 55.683083623110775, 36.851269205309649 ], [ 55.678668182990307, 36.850995848279837 ], [ 55.379280002270335, 36.735715644761228 ], [ 55.287129207946663, 36.726175061829728 ], [ 55.200858979758181, 36.702677034017924 ], [ 55.15497685589731, 36.674665888919648 ], [ 54.966579447983186, 36.654889879864157 ], [ 54.972086835039455, 36.644560340587333 ], [ 54.899226091211219, 36.621757146075488 ], [ 54.775078644264106, 36.623895995603824 ], [ 54.75750746080076, 36.622673301631622 ], [ 54.555736183478189, 36.569250634908983 ], [ 54.448037373625944, 36.543685026143088 ], [ 54.29261750169637, 36.550181990306726 ], [ 54.210252071376054, 36.561920171878441 ], [ 54.118527733768005, 36.590723242883435 ], [ 54.002757144326772, 36.635447443744603 ], [ 53.888969446682701, 36.662376309619034 ], [ 53.776044490261086, 36.74272592935823 ], [ 53.802181743192946, 36.893302147176492 ], [ 53.850647295536334, 36.920843558383602 ], [ 53.860104674990836, 36.903752396156257 ], [ 53.837131711859122, 37.032687496430931 ], [ 53.808117920705513, 37.149261559973105 ], [ 53.788639974855066, 37.308170537040738 ], [ 53.745396806317615, 37.477087768785552 ], [ 53.735861979047215, 37.553583256662023 ], [ 53.738901579644214, 37.708327714352656 ], [ 53.71517924382708, 37.837182524054299 ], [ 53.629833390098959, 37.860074505933824 ], [ 53.702499517938449, 37.937199744072984 ], [ 53.71067503072814, 37.931908353487735 ], [ 53.764161803824315, 37.924269750348742 ], [ 53.793912990492174, 38.045486512692499 ], [ 53.761101033186222, 38.185529975028395 ], [ 53.738511563458026, 38.36204009737267 ], [ 53.777835023367672, 38.585094617822421 ], [ 53.909055893614664, 38.744068840704486 ], [ 53.863154531456523, 38.805852027848871 ], [ 53.887894350344077, 38.908865425598989 ], [ 53.817561400238532, 39.040041070738944 ], [ 53.700522657894432, 39.060410528922858 ], [ 53.629969496195393, 39.131991326138845 ], [ 53.583521019779354, 39.193603486511726 ], [ 53.488408901849347, 39.27497084832607 ], [ 53.37686956327984, 39.307328494214737 ], [ 53.272809723390111, 39.340203404063963 ], [ 53.161853250726985, 39.312955677262714 ], [ 53.06943803144005, 39.209943030446574 ], [ 53.023313240813472, 39.265389235624767 ], [ 53.056874050097456, 39.404979471125749 ], [ 53.119990251948636, 39.499563946918663 ], [ 53.201854678051021, 39.625441101325791 ], [ 53.277099738662116, 39.691269617998508 ], [ 53.302936642312261, 39.562673480296958 ], [ 53.222691136187059, 39.478612998791 ], [ 53.363022964338356, 39.407222052056127 ], [ 53.271616211519003, 39.512477184474541 ], [ 53.397305621657196, 39.546806232421702 ], [ 53.452882604448746, 39.533593718475394 ], [ 53.54202293081368, 39.499334021747764 ], [ 53.620311044519177, 39.487898761518721 ], [ 53.661519670496425, 39.580426228787495 ], [ 53.623923064497937, 39.630879895291031 ], [ 53.478130936893251, 39.68430769264603 ], [ 53.32535877159016, 39.731007541265122 ], [ 53.366227779388588, 39.82361270995866 ], [ 53.533925819121343, 39.837546383059227 ], [ 53.545107578452068, 39.868194535549499 ], [ 53.430906576677252, 39.912250055395845 ], [ 53.252987280538612, 39.968628201030747 ], [ 53.043534272189028, 39.974427279595297 ], [ 52.888379225420991, 39.978689122704921 ], [ 52.937127623541137, 39.858153778474211 ], [ 53.052382731477955, 39.755261268492866 ], [ 52.85949450137025, 39.809717629465077 ], [ 52.748294560645505, 39.883045948811528 ], [ 52.691574045805609, 40.002771223313346 ], [ 52.655705814471844, 40.237281172188403 ], [ 52.675449470416744, 40.411441511716447 ], [ 52.756277548370235, 40.644610517461459 ], [ 52.845078958027578, 40.676319323178319 ], [ 53.069484934682052, 40.690096753462505 ], [ 52.975716888623538, 40.684393889766206 ], [ 52.937978330035982, 40.682076784715889 ], [ 52.900337048416155, 40.847259864051551 ], [ 52.870959190114654, 40.916006926278655 ], [ 52.843688614238239, 40.97066365080692 ], [ 52.862260760226008, 40.9723156487483 ], [ 52.978032344317292, 40.954002098318291 ], [ 53.056612116256176, 40.932332947107845 ], [ 53.09588586973716, 40.92147574860698 ], [ 53.133033040442577, 40.924692348373256 ], [ 53.190869359433499, 40.91540395512849 ], [ 53.257045250937608, 40.849708158604685 ], [ 53.314807643857755, 40.840347286298233 ], [ 53.335437281305573, 40.827821667336202 ], [ 53.356059285307879, 40.81529144024784 ], [ 53.399330349915765, 40.776116816338074 ], [ 53.438471025317611, 40.765124536967875 ], [ 53.45905490615911, 40.752571335798564 ], [ 53.496148129232836, 40.75566041259799 ], [ 53.535266040095721, 40.744631683705272 ], [ 53.576381471128052, 40.71948024601663 ], [ 53.596927763905242, 40.706897684680492 ], [ 53.615468425527503, 40.708420129885155 ], [ 53.654544401902683, 40.697345160550739 ], [ 53.673085495199459, 40.698858060351291 ], [ 53.765812013913425, 40.706378557324634 ], [ 53.877129800899638, 40.715306271167591 ], [ 53.951369255786616, 40.721199299208429 ], [ 54.044199325138784, 40.728499384938736 ], [ 54.062769412578469, 40.729950568763847 ], [ 54.118487775090841, 40.734286443164876 ], [ 54.174218232585467, 40.738595787565664 ], [ 54.33593120496122, 40.793777641524983 ], [ 54.352685299487078, 40.809321916773108 ], [ 54.371293421054609, 40.810725717118231 ], [ 54.481146462439391, 40.833229240437149 ], [ 54.535200858832646, 40.851516450623741 ], [ 54.553829715169279, 40.852891966391255 ], [ 54.607925397639043, 40.871148199429889 ], [ 54.645202404367552, 40.873873831412318 ], [ 54.740188577640815, 40.86648361112983 ], [ 54.758831435522438, 40.867826412259141 ], [ 54.835166125516345, 40.859012202751003 ], [ 54.852064522559694, 40.874495741385438 ], [ 54.924504085095514, 41.050997850770258 ], [ 54.873659232387752, 41.004556713721378 ], [ 54.831005313144722, 41.044363677042114 ], [ 54.810542319172718, 41.057182215087266 ], [ 54.784747350909647, 41.112456563419727 ], [ 54.764253056033731, 41.125263958864707 ], [ 54.743750886694151, 41.13806691615531 ], [ 54.68579989155181, 41.148150075365734 ], [ 54.667081339532295, 41.146787888450383 ], [ 54.622390063750501, 41.200644061674204 ], [ 54.581277890961978, 41.226184670186498 ], [ 54.540134121392704, 41.251707366002229 ], [ 54.461467435373891, 41.274416898820917 ], [ 54.412770725788441, 41.356445958414319 ], [ 54.371479077097774, 41.381893411551737 ], [ 54.309482017681056, 41.420030609025453 ], [ 54.234378594896313, 41.41428862122298 ], [ 54.187203501340576, 41.48205201488863 ], [ 54.166479486339249, 41.494728796396878 ], [ 54.154843916513649, 41.579503284748839 ], [ 54.14120594499844, 41.678401881241896 ], [ 54.133382146269113, 41.73491295207112 ], [ 54.127499603424013, 41.777295099789043 ], [ 54.117667282219415, 41.847929807514724 ], [ 54.107799733670845, 41.918561748925669 ], [ 54.099880233585971, 41.975065305019925 ], [ 54.076974512763663, 42.001833907209104 ], [ 54.067008486652455, 42.072456078385386 ], [ 54.006122297705929, 42.096222730994263 ], [ 54.000079955225878, 42.138587393193731 ], [ 53.979086148107278, 42.151205773627602 ], [ 53.88218080989656, 42.157761369092036 ], [ 53.821153421992882, 42.181413969679042 ], [ 53.74525840425207, 42.175263236409315 ], [ 53.650423111137755, 42.167505259060519 ], [ 53.574581882747786, 42.161243284150359 ], [ 53.441918074559567, 42.150166061114895 ], [ 53.309329350768984, 42.138937891370617 ], [ 53.0954941682214, 42.034834506307469 ], [ 52.974450460620268, 41.952836463432149 ], [ 52.957822326039548, 41.93709214928338 ], [ 52.888235908560389, 41.773893248674547 ], [ 52.880603826405505, 41.701841129364766 ], [ 52.782855218193845, 41.478999899326034 ], [ 52.731214084162715, 41.44580665375414 ], [ 52.714760945061698, 41.43004860875638 ], [ 52.649026377865091, 41.367001920901984 ], [ 52.616205777174905, 41.335469928194698 ], [ 52.595282095592268, 41.347830267053261 ], [ 52.572560409335502, 41.488464488645242 ], [ 52.53553363626834, 41.599239174148643 ], [ 52.477261066944756, 41.722310764830077 ], [ 52.444525296605228, 41.804910679884074 ], [ 52.388169548585815, 41.913843318214631 ], [ 52.376373617048841, 41.984107972904724 ], [ 52.369275867087651, 42.026265050891439 ], [ 52.435253220659703, 42.089525657782985 ], [ 52.439962631170602, 42.175614097012996 ], [ 52.494348170531744, 42.309147445298471 ], [ 52.49672536018727, 42.409303623163723 ], [ 52.546600637609465, 42.570966863929712 ], [ 52.577540265770715, 42.61665168822492 ], [ 52.60140982600273, 42.704516996262491 ], [ 52.651523283472791, 42.751943714730693 ], [ 52.632441579815179, 42.750198806030141 ], [ 52.610986819785985, 42.762512224559572 ], [ 52.589523718544896, 42.774820667140197 ], [ 52.563274098021274, 42.815242601265076 ], [ 52.503587840306629, 42.824004573652182 ], [ 52.439048207708673, 42.860840011457398 ], [ 52.395979969899784, 42.88537190169199 ], [ 52.295548061693751, 42.904474467822503 ], [ 52.214177366092649, 42.925304185539829 ], [ 52.151871908461942, 42.947903807714646 ], [ 52.132761097346823, 42.94606901807078 ], [ 52.053818531699982, 42.95273380022477 ], [ 51.991440910669574, 42.97523498260842 ], [ 51.883115463108233, 43.03602696307393 ], [ 51.845969246583543, 43.13232129918871 ], [ 51.82525733106106, 43.244514111237372 ], [ 51.817459602778513, 43.286583782315795 ], [ 51.812251762808671, 43.314629429004988 ], [ 51.705732001930436, 43.361147039904054 ], [ 51.656725195311601, 43.413356842244518 ], [ 51.593728743586773, 43.435569285594148 ], [ 51.571829666306144, 43.447634634231129 ], [ 51.530690816927702, 43.457741237867872 ], [ 51.437544701526825, 43.533920536703526 ], [ 51.382690378857951, 43.613974542091498 ], [ 51.355262622172368, 43.753973055412303 ], [ 51.341474381137843, 43.823965841450537 ], [ 51.335945136958614, 43.851961742140759 ], [ 51.33317751922727, 43.865959432581818 ], [ 51.191896135598256, 43.979801905233799 ], [ 51.141849093960587, 44.031684485650572 ], [ 51.108266558854666, 44.099571441668758 ], [ 51.035740449162468, 44.163318481063115 ], [ 50.991141049919584, 44.187142280192134 ], [ 50.957262794342526, 44.254956978381969 ], [ 50.848363973218866, 44.300398887698563 ], [ 50.82597891939168, 44.312266401673114 ], [ 50.748168066902778, 44.303818277391642 ], [ 50.68686801984331, 44.31141131188258 ], [ 50.64797947837031, 44.307146408380135 ], [ 50.628538434401328, 44.305009113779633 ], [ 50.609099546107274, 44.302868589713725 ], [ 50.531365605438396, 44.294274237466162 ], [ 50.508931609606179, 44.306071124982523 ], [ 50.480457354123644, 44.345766498625046 ], [ 50.45193932324127, 44.385450583977352 ], [ 50.400868852215872, 44.43689065837723 ], [ 50.376426330310998, 44.548462309588018 ], [ 50.37029352772425, 44.576353216227986 ], [ 50.358001210887217, 44.632132613029803 ], [ 50.354922555431671, 44.646076957485718 ], [ 50.351841665160769, 44.660021100493445 ], [ 50.387846419876468, 44.678360001013303 ], [ 50.401247477589152, 44.708446237304138 ], [ 50.466048946002097, 44.687110774142973 ], [ 50.615076074401401, 44.646467110368967 ], [ 50.702293196973578, 44.613169056906528 ], [ 50.772848333583788, 44.563701932298365 ], [ 50.877504201857491, 44.446424886699269 ], [ 50.880437085303285, 44.432452064311342 ], [ 50.892147370804572, 44.376558901472137 ], [ 50.917465111126035, 44.350704212829221 ], [ 50.936942543463694, 44.352793985454127 ], [ 51.087083799677714, 44.397363126107507 ], [ 51.12035178071018, 44.429456070041688 ], [ 51.114598965070236, 44.457426479448607 ], [ 51.150784722736873, 44.475530164085868 ], [ 51.164581920119602, 44.505559949032488 ], [ 51.111066840862094, 44.571368844296792 ], [ 51.074094344578448, 44.653198899209904 ], [ 51.026160707950353, 44.690981461625242 ], [ 51.045759792480503, 44.693065101773129 ], [ 51.19454478201618, 44.651605287054423 ], [ 51.30681081686582, 44.591868641224949 ], [ 51.374062445025857, 44.555961355931913 ], [ 51.399280312936177, 44.529982172339452 ], [ 51.541892578080137, 44.515997671355471 ], [ 51.6202121158965, 44.523933684791743 ], [ 51.673467769522006, 44.55787723924329 ], [ 51.870195063351566, 44.67750089035389 ], [ 51.906793838265095, 44.695397711135506 ], [ 51.923748082308187, 44.711354836356684 ], [ 52.02835803659417, 44.793034305189124 ], [ 52.045373809553709, 44.808979313844326 ], [ 52.226671574433738, 44.91218586888283 ], [ 52.374300216581794, 44.983348737654168 ], [ 52.413884821627263, 44.987067590796755 ], [ 52.651552735370508, 45.009097246041115 ], [ 52.877167705725071, 44.986660581920376 ], [ 53.001085381285371, 44.969107457743 ], [ 52.983735446333803, 44.953279677515205 ], [ 52.968870075593578, 44.923378200643512 ], [ 53.028300029223061, 44.928636470097054 ], [ 53.293206077598541, 44.908812993025286 ], [ 53.352679392939763, 44.913901082868783 ], [ 53.570882266103816, 44.932295991366985 ], [ 53.727414808946307, 44.959519339346073 ], [ 53.872831328403201, 45.057084663926169 ], [ 54.060877574440589, 45.143541904335464 ], [ 54.189572641164538, 45.225083250791435 ], [ 54.318644736065792, 45.306505583665839 ], [ 54.43234287202602, 45.358033451682537 ], [ 54.508263009630262, 45.392330113244213 ], [ 54.586395272623868, 45.412446898805385 ], [ 54.658294908283501, 45.474928012917545 ], [ 54.694303691062593, 45.506155628279636 ], [ 54.746306104343354, 45.567121739976365 ], [ 54.80256684798178, 45.599786247137693 ], [ 54.854767924200466, 45.660716549629129 ], [ 54.94542632776286, 45.738651387151826 ], [ 55.001977779950693, 45.771236083978188 ], [ 55.05454655208176, 45.832099286253133 ], [ 55.204597702522008, 45.928257540553112 ], [ 55.298153647073235, 45.991811807568965 ], [ 55.449071952608584, 46.087699724762558 ], [ 55.585868409999208, 46.139584469847513 ], [ 55.721056831007999, 46.205491446073481 ], [ 55.873329159413267, 46.300891493647619 ], [ 55.98879804159639, 46.365236567813369 ], [ 56.06713540937168, 46.398621287142824 ], [ 56.106341611176504, 46.415295319523416 ], [ 56.20889518106781, 46.421460457234424 ], [ 56.328524310848373, 46.457118245410804 ], [ 56.513369757308553, 46.467798058933326 ], [ 56.575008069966479, 46.471291997927452 ], [ 56.913472918640338, 46.404131167119715 ], [ 57.01616828194075, 46.409570827132015 ], [ 57.180541922871484, 46.418083376147031 ], [ 57.242201066526079, 46.421214958503569 ], [ 57.226161992382139, 46.377531497180861 ], [ 57.245201712988759, 46.392785154711184 ], [ 57.303870424680404, 46.424313450305547 ], [ 57.36260824207676, 46.455814437986028 ], [ 57.518623817735083, 46.549163646385232 ], [ 57.537805960376843, 46.564374249771838 ], [ 57.613226208023214, 46.639411978879771 ], [ 57.628226973496112, 46.697279745364014 ], [ 57.742581001212265, 46.802635483141138 ], [ 57.84208667605931, 46.850044589286448 ], [ 57.958351776019747, 46.899427100449472 ], [ 58.205216746844236, 47.590649018758221 ], [ 58.489905192577005, 48.534615970398491 ], [ 58.954396867193694, 49.718320560550652 ], [ 59.373937734589397, 50.077927018318391 ], [ 59.763511397171122, 50.227763042388318 ], [ 60.07985832611832, 50.227763042388318 ], [ 60.110883941240942, 50.283802924265686 ], [ 60.146552794675813, 50.308485669478117 ], [ 60.182258549092857, 50.333157981655582 ], [ 60.180850821408391, 50.356924558721516 ], [ 60.286880547099621, 50.454648771024054 ], [ 60.322768034717065, 50.479280267470457 ], [ 60.394654908097642, 50.528511450443148 ], [ 60.392031642346531, 50.576051237974347 ], [ 60.428065100723906, 50.600652016277607 ], [ 60.573802060316915, 50.675175223457899 ], [ 60.646248908260567, 50.724257302432633 ], [ 60.71884711570187, 50.773295913575637 ], [ 60.940702805689959, 50.848815248525 ], [ 61.128520149984986, 50.85197933417902 ], [ 61.20274189632152, 50.876941913338669 ], [ 61.240330939921037, 50.877514779683423 ], [ 61.390698998859747, 50.879685235885034 ], [ 61.46588979707662, 50.880697847327824 ], [ 61.691486781889509, 50.883445134085733 ], [ 61.766693282269237, 50.884264027962615 ], [ 61.841312953430148, 50.908822736879863 ], [ 61.91490410593984, 50.980911339886511 ], [ 61.952052923303896, 51.005044079520708 ], [ 61.951516530763371, 51.028832728647615 ], [ 62.025467264602668, 51.100852335666858 ], [ 62.024465530459921, 51.148429827274811 ], [ 61.985078046914452, 51.219472919839504 ], [ 61.946655999075219, 51.24292600852857 ], [ 61.832964850847247, 51.241847612577374 ], [ 61.795690518702585, 51.217677112208989 ], [ 61.75973210425326, 51.145922063252677 ], [ 61.72257286734407, 51.121728676037655 ], [ 61.723228534269538, 51.097942337269139 ], [ 61.68679978248403, 51.049951387746432 ], [ 61.57066232990266, 51.143764079748522 ], [ 61.410420983841405, 51.403424964490611 ], [ 61.409595763234002, 51.427206801252893 ], [ 61.367312025629559, 51.54558976835321 ], [ 61.365607022546129, 51.593151168391842 ], [ 61.285665850598612, 51.687180729207327 ], [ 61.246490058469462, 51.710394777197337 ], [ 61.245569701280779, 51.734173374601596 ], [ 61.203499500501621, 51.828706624111476 ], [ 61.162219361334515, 51.899444902260498 ], [ 61.082313234168474, 51.969545834472797 ], [ 61.081297333904914, 51.993321192519112 ], [ 61.080280027101672, 52.017096439049482 ], [ 61.079261311060726, 52.040871575862631 ], [ 61.035490583123995, 52.159107942677437 ], [ 60.993626471884234, 52.229777417294088 ], [ 60.992553613958179, 52.25355045688822 ], [ 60.990403418583007, 52.301096201528537 ], [ 60.989326074838566, 52.32486890567553 ], [ 60.985001660498348, 52.419958602607508 ], [ 60.980653050797748, 52.515046508989279 ], [ 60.978469615580408, 52.562589789487291 ], [ 60.93499311883749, 52.657000050412066 ], [ 60.893616760305278, 52.703851809813244 ], [ 60.849808472183362, 52.798225320841922 ], [ 60.728453406699465, 52.867334359293309 ], [ 60.72596591519487, 52.914866945053518 ], [ 60.723471406280503, 52.962399065864304 ], [ 60.718461233699074, 53.057461913536571 ], [ 60.715945516072765, 53.104992640398137 ], [ 60.793711400660619, 53.13024904515737 ], [ 60.986858454753943, 53.228824483763049 ], [ 61.025375640073833, 53.253256644578514 ], [ 61.144284664705637, 53.255167360385421 ], [ 61.223564698252332, 53.256375309073341 ], [ 61.383037998105173, 53.234858989550823 ], [ 61.462290149071173, 53.23590791022194 ], [ 61.54235487527734, 53.2131281817203 ], [ 61.621572582208962, 53.214070927531317 ], [ 61.700794618476941, 53.214961025231219 ], [ 61.859250682573091, 53.216583256512166 ], [ 61.898867015700318, 53.216955900494419 ], [ 62.096961029028343, 53.218621605003143 ], [ 62.215826197321235, 53.219462994521649 ], [ 62.33469690903523, 53.220185842602682 ], [ 62.254623171622171, 53.267280298447069 ], [ 62.095457262742542, 53.289963400190828 ], [ 62.015538636798667, 53.313114863460243 ], [ 61.896420625011899, 53.312072353156644 ], [ 61.856080480629728, 53.335476964790189 ], [ 61.815036380224839, 53.382645602112959 ], [ 61.734088734707413, 53.429383883259703 ], [ 61.693548323896124, 53.452731897858811 ], [ 61.613109948265574, 53.475609853911706 ], [ 61.612334029392066, 53.499385502439083 ], [ 61.530117385608882, 53.569756821220423 ], [ 61.489330448141786, 53.593033302844788 ], [ 61.488481666195995, 53.616807180606948 ], [ 61.406725821539574, 53.663316050995036 ], [ 61.40582833950635, 53.687088717370465 ], [ 61.403128170029099, 53.758406086971441 ], [ 61.479926689864918, 53.854540220554796 ], [ 61.600561179854608, 53.856007874563879 ], [ 61.721205927511633, 53.857354283773248 ], [ 61.881445740228855, 53.882737413800712 ], [ 61.961934002152546, 53.883460464229131 ], [ 62.163168904021731, 53.885032005222918 ], [ 62.324169312963534, 53.886046368545145 ], [ 62.525431986796818, 53.887010689092115 ], [ 62.565685815148314, 53.887163064823703 ], [ 62.76669468770978, 53.935283954690846 ], [ 62.887534847255438, 53.959238678922006 ], [ 63.008508586702007, 53.959291012270498 ], [ 63.089208540941456, 53.983038898726306 ], [ 63.210250573105554, 53.982888102204193 ], [ 63.291276362514161, 54.030280337967255 ], [ 63.331668985935039, 54.030175711739844 ], [ 63.615461755056003, 54.100400296236728 ], [ 63.858696870664176, 54.122691459043708 ], [ 64.183176937765523, 54.143720834349104 ], [ 64.551143837518197, 54.234672205557906 ], [ 64.714429496624035, 54.256242691247266 ], [ 64.795617768345409, 54.255060506337387 ], [ 64.998561673482556, 54.251865971437496 ], [ 65.238179952343032, 54.176297232231533 ], [ 65.236897302368718, 54.152535453048763 ], [ 65.230511758810707, 54.033724829537363 ], [ 65.714761934415804, 54.023761060724503 ], [ 65.753532584661173, 53.99908975848566 ], [ 65.956770164311749, 54.018048688496194 ], [ 65.997096565254381, 54.017049316872608 ], [ 66.240849273075554, 54.034511845145602 ], [ 66.409940982290621, 54.12500425004616 ], [ 66.494762810955052, 54.170156511114158 ], [ 66.581825789728441, 54.238978969803668 ], [ 66.750337469498675, 54.30523402143308 ], [ 66.831480869546539, 54.302680395583806 ], [ 66.914866028544452, 54.323796121094233 ], [ 67.158317821410364, 54.31563794633422 ], [ 67.401644795570945, 54.306989653649659 ], [ 67.604316743922652, 54.299408760006337 ], [ 67.685358927072912, 54.296281291148759 ], [ 67.887895584113934, 54.288225037455625 ], [ 68.009369078620153, 54.283228493200482 ], [ 68.090330651038812, 54.279829682693759 ], [ 68.292660017046245, 54.271095610873751 ], [ 68.373561248552903, 54.267507230474351 ], [ 68.575735750404618, 54.258299629624318 ], [ 68.777794737936887, 54.248754296473663 ], [ 68.858585078538653, 54.244841695188128 ], [ 69.020107324493523, 54.236854703681729 ], [ 69.100838712736461, 54.232780371916697 ], [ 69.298966751014802, 54.1987230244481 ], [ 69.460174153314611, 54.190151334216807 ], [ 69.609949395348423, 54.110500381587372 ], [ 69.762996092196033, 54.054293922826346 ], [ 69.959639499063769, 54.019186544023867 ], [ 70.155923328199123, 53.983766556381504 ], [ 70.391824067826519, 53.94556841994671 ], [ 70.471764267606986, 53.94059499006687 ], [ 70.667163707039521, 53.904362175374217 ], [ 70.786869843068928, 53.896611583258021 ], [ 70.857751795109323, 53.844263904955355 ], [ 71.0170453780418, 53.833658394319528 ], [ 71.096653658739456, 53.828276903356539 ], [ 71.136448066625007, 53.825566490601148 ], [ 71.255791998002366, 53.817356641695731 ], [ 73.049982576334898, 53.225210787447971 ], [ 73.089001783905303, 53.221879959392645 ], [ 73.389440058911646, 53.14799282291051 ], [ 73.461501286555162, 53.117715211787697 ], [ 73.560718427413605, 53.037154497781898 ], [ 73.775650739689937, 52.945938498363084 ], [ 74.125747925126689, 52.769810274025005 ], [ 74.196629018314624, 52.73914455327855 ], [ 74.331965267183406, 52.654379605834208 ], [ 74.39636765154593, 52.600291396730725 ], [ 74.75994602698762, 52.49248608016854 ], [ 75.007524476873186, 52.395473469025418 ], [ 75.178105264646319, 52.30596834076637 ], [ 75.64569674400957, 51.896971253120938 ], [ 75.676572846759584, 51.869658778729729 ], [ 75.867756361566904, 51.728859083679879 ], [ 75.973007720430061, 51.693146522294242 ], [ 76.078078441467028, 51.657349578420408 ], [ 76.176139978677213, 51.598305673168362 ], [ 76.236806710561353, 51.54346872270343 ], [ 76.273941251187921, 51.539197059896487 ], [ 76.364593676956687, 51.456878745957454 ], [ 77.207428661403696, 51.21200080729151 ], [ 77.273572065798277, 51.179818601147616 ], [ 77.405567152502158, 51.115362162134211 ], [ 77.55193154120775, 51.096842211898604 ], [ 77.617638040563236, 51.064494281386082 ], [ 77.814177072114319, 50.96727057867438 ], [ 78.097657201818521, 50.90614130297881 ], [ 78.23522976783957, 50.863857939492434 ], [ 78.307757141079264, 50.854136276268221 ], [ 78.380244263362158, 50.844370893402058 ], [ 78.416472683067951, 50.839471825764178 ], [ 78.525097151612371, 50.824709205265691 ], [ 78.56128498131693, 50.819766551085529 ], [ 78.633630040394081, 50.809848617120053 ], [ 78.814313316506428, 50.784863812115333 ], [ 78.994738504278644, 50.759608377724589 ], [ 79.210904838387705, 50.728945961986582 ], [ 79.390754227125953, 50.703098495799011 ], [ 79.642097154560133, 50.666462753353422 ], [ 79.821306097398519, 50.639974772018178 ], [ 79.892914037952579, 50.629305263826915 ], [ 80.035999497578786, 50.607839198420379 ], [ 80.214610371471522, 50.580769054448368 ], [ 80.285977768559263, 50.569867293640769 ], [ 80.464202701993202, 50.542429197449579 ], [ 80.499814373834397, 50.536910152481603 ], [ 80.642149459829739, 50.514729487575849 ], [ 80.890803674250265, 50.475512318538748 ], [ 81.138903073518037, 50.43578718812833 ], [ 81.394624994248204, 50.322039331350155 ], [ 81.517447631003449, 50.2537171655149 ], [ 81.710102707374119, 50.173595987964511 ], [ 81.822869096231855, 50.082503112029016 ], [ 81.874510901157265, 50.025676197498555 ], [ 81.900288481028639, 49.99725975493385 ], [ 82.021477999310264, 49.928569671952872 ], [ 82.114666104057548, 49.792343758857434 ], [ 82.191151586076899, 49.707027846258171 ], [ 81.902395744568025, 49.339760188282163 ], [ 81.904643936368672, 49.332851436244859 ], [ 81.919126215702377, 49.258293306590858 ], [ 82.000755387251417, 49.186707660230411 ], [ 82.046397027001262, 49.135644320828838 ], [ 82.107114841276967, 49.067551280667132 ], [ 82.116895882239277, 49.03703475115293 ], [ 82.136435415462174, 48.976005695906181 ], [ 82.151558487833995, 48.958982752651977 ], [ 82.18714573408846, 48.93842182700574 ], [ 82.227028356473539, 48.873859366016958 ], [ 82.242093323648078, 48.856832981057252 ], [ 82.277569608850399, 48.836258040376364 ], [ 82.313014683980569, 48.815675612839371 ], [ 82.3484285841119, 48.795085724526643 ], [ 82.408371845584284, 48.726947211045065 ], [ 82.443681380291579, 48.70634086423955 ], [ 82.534525608969716, 48.661522125745549 ], [ 82.564313288327696, 48.627433001631815 ], [ 82.660320744307, 48.595997496287509 ], [ 82.760076706774711, 48.520555944601185 ], [ 82.830048406408935, 48.479191402261442 ], [ 82.905366563016486, 48.451226429256337 ], [ 82.965903759251148, 48.440293267720236 ], [ 83.075852599118221, 48.391511589288513 ], [ 83.136253289957438, 48.380498877321358 ], [ 83.216730894015598, 48.365768854549081 ], [ 83.391992787936942, 48.319047122726651 ], [ 83.512340304261699, 48.296685387420709 ], [ 83.552423444886131, 48.289205212450696 ], [ 83.678212704952472, 48.280047462820264 ], [ 83.803911689273093, 48.270750484647166 ], [ 83.849579716031172, 48.276518009598576 ], [ 83.875261655700911, 48.286065925602088 ], [ 84.018059478861915, 48.316538723783161 ], [ 84.063770956364579, 48.322207212692803 ], [ 84.109487613962273, 48.327855033383123 ], [ 84.129463994667702, 48.324010848921617 ], [ 84.175181809692901, 48.329629719536001 ], [ 84.206726762530138, 48.352402711216229 ], [ 84.29822169747348, 48.363545270897653 ], [ 84.389736421998379, 48.374604998521946 ], [ 84.447225322091029, 48.406688602097333 ], [ 84.512978040304404, 48.408242490298733 ], [ 84.584626319049477, 48.42303537658141 ], [ 84.642281902188074, 48.454991657738852 ], [ 84.68812237754581, 48.460369838297531 ], [ 84.733967420560106, 48.465727230127698 ], [ 84.75987213758917, 48.475029683373265 ], [ 84.811707800374734, 48.493612166168631 ], [ 84.851593271812106, 48.485657016058511 ], [ 84.877524243648992, 48.494926920141339 ], [ 84.909471759114524, 48.517438612901742 ], [ 84.929412339607836, 48.513444252450363 ], [ 85.009130982408948, 48.497434718337644 ], [ 85.029049712973915, 48.493424321175553 ], [ 85.048964066538502, 48.489410721527634 ], [ 85.054931020829343, 48.46617586531012 ], [ 85.115766669796727, 48.534615970398491 ], [ 85.565274742006437, 48.249927524665722 ], [ 86.524225296053686, 47.141140946548525 ], [ 86.014782814216119, 46.916386910443634 ], [ 85.595241946820408, 46.901403308036642 ], [ 85.220651886645683, 46.856452500815756 ], [ 84.786127416842987, 46.571764055082895 ], [ 84.426520959075248, 46.466878838234031 ], [ 83.317734380958058, 46.511829645455009 ], [ 83.369729970116225, 46.570324683257873 ], [ 83.364615047946216, 46.568298449613806 ], [ 83.271272175270781, 46.542517285944022 ], [ 83.216841430587664, 46.509484054045906 ], [ 83.202976370324649, 46.501039727111056 ], [ 83.385160591789514, 46.481862440641024 ], [ 82.171488796823382, 45.403043067337819 ], [ 82.978495843251011, 44.484724704161486 ], [ 83.140601322293293, 44.44538596828788 ], [ 83.434958371731554, 44.376489050229566 ], [ 83.658765437674873, 44.334401765029511 ], [ 83.844896948835213, 44.29901866487959 ], [ 84.012122584589719, 44.26693396143326 ], [ 84.179069441301792, 44.234623107270636 ], [ 84.401229201966174, 44.191192081149651 ], [ 84.512121292163982, 44.169327353474671 ], [ 84.530591095302896, 44.165673594161078 ], [ 84.600657651829238, 44.037409325180292 ], [ 84.588691579352968, 43.95402611771128 ], [ 84.471535747976446, 43.905753567073532 ], [ 84.125017282421737, 43.930635909619646 ], [ 83.925669008917737, 43.926197615027981 ], [ 83.79043643749165, 43.88059985859671 ], [ 83.729249946028233, 43.820801380779166 ], [ 83.566323950989641, 43.751601292265889 ], [ 83.376300610185055, 43.715760897647364 ], [ 83.274459424762767, 43.70611301840119 ], [ 83.038301744330113, 43.649615923036485 ], [ 82.950398917476122, 43.622815831085845 ], [ 82.820962317457059, 43.589177243934778 ], [ 82.691634110925577, 43.555356549465245 ], [ 82.682512514041363, 43.528442171668928 ], [ 82.867412770583002, 43.438030537579301 ], [ 82.93657766682594, 43.41121003821273 ], [ 82.987250764311383, 43.387715529448194 ], [ 82.867532022484951, 43.380922793552209 ], [ 82.761687305324983, 43.35722151715941 ], [ 82.614910127800258, 43.269385160097144 ], [ 82.532730714151171, 43.198423285306468 ], [ 82.468560411533844, 43.181275248154265 ], [ 82.294632629492327, 43.126334183176148 ], [ 82.234967236049144, 43.122514359550117 ], [ 82.115627671779706, 43.114771392785649 ], [ 81.900876911040626, 43.051977713900499 ], [ 81.649205481048227, 43.024694766950049 ], [ 81.51306876271326, 42.962040268943362 ], [ 81.449291934175477, 42.944190680555479 ], [ 81.38972445801744, 42.939861511499615 ], [ 81.371260961823978, 42.942932782621931 ], [ 81.284898760869211, 42.914473513441905 ], [ 81.161664611432784, 42.892003466486891 ], [ 81.098012707720329, 42.873916350958915 ], [ 81.038483398789879, 42.869377507665881 ], [ 80.978953091611999, 42.864804444269737 ], [ 80.90093239041758, 42.863188007320737 ], [ 80.792282936008746, 42.823658704285876 ], [ 80.710264956062943, 42.808281002366392 ], [ 80.601797081070515, 42.768523944224675 ], [ 80.519865436041073, 42.752981890302074 ], [ 80.497406993937716, 42.742268920574304 ], [ 80.46705762411014, 42.704278936723654 ], [ 80.436752090836421, 42.666274895570041 ], [ 80.432818957129257, 42.652636500474188 ], [ 80.406490298788356, 42.628256827690507 ], [ 80.371710427180133, 42.611549190965185 ], [ 80.418407315205684, 42.541175007602831 ], [ 80.470849923630055, 41.844437495677852 ], [ 80.11124346586233, 41.791994887253374 ], [ 79.841538622536547, 41.851929296881345 ], [ 79.519391170786292, 41.904371905305823 ], [ 79.129817508204582, 41.597208055962561 ], [ 78.830145460064813, 41.544765447538083 ], [ 78.522981610721544, 41.402421224671656 ], [ 78.253276767395676, 41.177667188566851 ], [ 78.013539128883878, 40.915454146444482 ], [ 77.526572050656711, 40.892978742833989 ], [ 77.256867207330927, 40.930437748851475 ], [ 77.03211317122603, 40.95291315246196 ], [ 76.627875947726636, 40.98285665049896 ], [ 76.62556514731375, 40.971873775854199 ], [ 76.622651547131198, 40.957976346331378 ], [ 76.608114047625236, 40.88848613382811 ], [ 76.432901269278261, 40.766936295873442 ], [ 76.411757161164189, 40.755194165378491 ], [ 76.290676396998208, 40.712469352578658 ], [ 76.242863096854535, 40.661073296395585 ], [ 76.221783665283965, 40.64928527529527 ], [ 76.043399476304842, 40.598693860533338 ], [ 75.967533506666086, 40.593137762597735 ], [ 75.855092443061849, 40.59167497931692 ], [ 75.800215518631347, 40.597873751672338 ], [ 75.708716158124261, 40.608148777644089 ], [ 75.657325391517077, 40.613881517205726 ], [ 75.316490695625816, 40.391028062199915 ], [ 74.80704821378815, 40.046405206839168 ], [ 74.357540141578554, 39.881585580362248 ], [ 74.267638527136597, 39.626864339443465 ], [ 74.896949828230106, 39.327192291303696 ], [ 75.166654671555975, 38.937618628721978 ], [ 75.496293924509729, 38.503094158919275 ], [ 75.526261129323714, 38.218405713186414 ], [ 75.526261129323714, 37.708963231348839 ], [ 75.241572683590846, 37.214504351918173 ], [ 74.717146599346279, 37.169553544697195 ], [ 74.237671322322612, 36.66011106285962 ], [ 74.687179394532308, 36.165652183428946 ], [ 74.507376165648395, 35.73112771362625 ], [ 74.11780250306667, 35.611258894370309 ], [ 73.518458406787133, 35.67119330399828 ], [ 72.58947505755377, 35.566308087149416 ], [ 72.005114563681232, 35.47640647270746 ], [ 71.405770467401609, 35.416472063079489 ], [ 70.192098672435549, 35.401488460672496 ], [ 69.742836259729003, 35.347576971147717 ], [ 69.725119761068186, 35.34151878566351 ], [ 69.706555385222885, 35.336604125579989 ], [ 69.695712145099492, 35.337207953784137 ], [ 69.688483138186328, 35.337609970523772 ], [ 69.67329088996263, 35.329527003368618 ], [ 69.661959609348628, 35.324203787574852 ], [ 69.650873354421847, 35.321841385471579 ], [ 69.643401669051883, 35.319278476820323 ], [ 69.606049447524015, 35.306456163421267 ], [ 69.584366250701962, 35.307643946610938 ], [ 69.521252227008787, 35.290248586902791 ], [ 69.502945519520196, 35.288262666189134 ], [ 69.466096921935502, 35.281318980886304 ], [ 69.440329231009343, 35.276747594725762 ], [ 69.418411990121299, 35.274941363952898 ], [ 69.400342988738004, 35.275902665475641 ], [ 69.389033778386249, 35.270550915092699 ], [ 69.349280708737794, 35.272652365414451 ], [ 69.337974625328741, 35.267295398963576 ], [ 69.327132641558251, 35.267865185130269 ], [ 69.323518579219154, 35.268054899813876 ], [ 69.305217171435331, 35.266037755538086 ], [ 69.286916255580763, 35.264017725337823 ], [ 69.271771404326955, 35.25587815215507 ], [ 69.242630924777387, 35.254414724060361 ], [ 69.217104581311489, 35.252757755566037 ], [ 69.180735593073237, 35.251651696468748 ], [ 69.13262565335134, 35.23922634022351 ], [ 69.121783153369933, 35.239777341351257 ], [ 69.085639367962557, 35.24160704892622 ], [ 69.060336784814837, 35.242881470103875 ], [ 69.013781679381097, 35.251165829639405 ], [ 69.006550720939117, 35.251526277915431 ], [ 68.995704040908876, 35.252066145436338 ], [ 68.981241354205167, 35.252784467229496 ], [ 68.962726316066693, 35.247747898646679 ], [ 68.93698208485543, 35.243064465053116 ], [ 68.910808139584091, 35.232442587655385 ], [ 68.881669876863384, 35.230890064624802 ], [ 68.844446715243777, 35.217814286300346 ], [ 68.808294353002054, 35.219560203140958 ], [ 68.771717353373205, 35.215361268507813 ], [ 68.734933247971128, 35.208183582306503 ], [ 68.694954584286677, 35.207099606062002 ], [ 68.64051184174815, 35.206679059690941 ], [ 68.604146912150341, 35.205395663279312 ], [ 68.552505900427064, 35.192894731606643 ], [ 68.53040688946642, 35.187953998378411 ], [ 68.504493627978633, 35.180205398260604 ], [ 68.515340151526843, 35.179710452775211 ], [ 68.555108469180553, 35.177887397485456 ], [ 68.599391695570375, 35.175841906578846 ] ], [ [ 75.56325774464932, 40.923655616213757 ], [ 75.544854933808267, 40.925691952921369 ], [ 75.405369097905577, 40.884002632115816 ], [ 75.302825057230706, 40.838135636650371 ], [ 75.260798725380937, 40.814167476547865 ], [ 75.137476928017904, 40.756124753254845 ], [ 75.037844880436978, 40.723947266753051 ], [ 74.880550126956422, 40.670148738525121 ], [ 75.626415575007996, 40.648103454346256 ], [ 75.601892644030386, 40.734069104006025 ], [ 75.573596306824129, 40.879745684915477 ], [ 75.576281875808036, 40.893702777261424 ], [ 75.56325774464932, 40.923655616213757 ] ], [ [ 83.677340838725797, 46.916386910443634 ], [ 83.681806400552858, 46.92141066749906 ], [ 83.672939151390466, 46.916159236960816 ], [ 83.677340838725797, 46.916386910443634 ] ] ] ] } }
]
}
