{
"type": "FeatureCollection",
"name": "ToglarOrtaO",
"crs": { "type": "name", "properties": { "name": "urn:ogc:def:crs:OGC:1.3:CRS84" } },
"features": [
{ "type": "Feature", "properties": { "id": 9, "Лист1_": "Sulton Uvays" }, "geometry": { "type": "MultiLineString", "coordinates": [ [ [ 60.307379635941118, 42.315751480826357 ], [ 60.861772924999705, 41.927676178485342 ] ] ] } },
{ "type": "Feature", "properties": { "id": 77, "Лист1_": "Katta Bolxon" }, "geometry": { "type": "MultiLineString", "coordinates": [ [ [ 54.364283577233053, 39.998387532561487 ], [ 54.874325403166957, 39.543785035533446 ], [ 54.874325403166957, 39.543785035533446 ] ] ] } },
{ "type": "Feature", "properties": { "id": 79, "Лист1_": "Qoplonqir" }, "geometry": { "type": "MultiLineString", "coordinates": [ [ [ 56.493153807218015, 41.412090419660927 ], [ 57.080810693620123, 40.52506115716718 ] ] ] } },
{ "type": "Feature", "properties": { "id": 74, "Лист1_": "Kopetdog‘" }, "geometry": { "type": "MultiLineString", "coordinates": [ [ [ 56.748174720184998, 38.606860377024461 ], [ 60.296291770159982, 36.356023623446582 ] ] ] } },
{ "type": "Feature", "properties": { "id": 75, "Лист1_": "Turkman-Xuroson" }, "geometry": { "type": "MultiLineString", "coordinates": [ [ [ 55.983111981284139, 37.475898067344936 ], [ 57.358007338149449, 37.38719514109556 ], [ 58.245036600643196, 36.954768375629861 ], [ 59.575580494383814, 36.056651247354942 ] ] ] } },
{ "type": "Feature", "properties": { "id": 76, "Лист1_": "Nishopur" }, "geometry": { "type": "MultiLineString", "coordinates": [ [ [ 56.681647525497965, 36.655395999538221 ], [ 58.577672574078349, 36.045563381573771 ] ] ] } },
{ "type": "Feature", "properties": { "id": 81, "Лист1_": "Bodxiz" }, "geometry": { "type": "MultiLineString", "coordinates": [ [ [ 61.438341945620706, 35.82380606595035 ], [ 62.025998832022815, 35.67966381079512 ] ] ] } },
{ "type": "Feature", "properties": { "id": 82, "Лист1_": "Qorabel" }, "geometry": { "type": "MultiLineString", "coordinates": [ [ [ 62.835413034048358, 36.500165878601827 ], [ 64.032902538414916, 36.422550818133629 ] ] ] } },
{ "type": "Feature", "properties": { "id": 72, "Лист1_": "Bandi Turkiston" }, "geometry": { "type": "MultiLineString", "coordinates": [ [ [ 63.63373937029273, 35.435730763609335 ], [ 65.08624978762623, 35.845981797512692 ] ] ] } },
{ "type": "Feature", "properties": { "id": 73, "Лист1_": "Safekuh" }, "geometry": { "type": "MultiLineString", "coordinates": [ [ [ 62.203404684521566, 34.781546682520201 ], [ 63.545036444043355, 34.715019487833167 ], [ 65.618467345122482, 34.925688937675432 ] ] ] } },
{ "type": "Feature", "properties": { "id": 78, "Лист1_": "Qorabovur" }, "geometry": { "type": "MultiLineString", "coordinates": [ [ [ 60.224220642582416, 43.391274461600098 ], [ 61.000371247264439, 43.258220072226038 ] ] ] } },
{ "type": "Feature", "properties": { "id": 7, "Лист1_": "Qoratov" }, "geometry": { "type": "MultiLineString", "coordinates": [ [ [ 51.54519370237017, 44.458481543037898 ], [ 52.216009582131065, 44.264443891867387 ] ] ] } },
{ "type": "Feature", "properties": { "id": 8, "Лист1_": "Oqtov" }, "geometry": { "type": "MultiLineString", "coordinates": [ [ [ 51.556281568151341, 44.281075690539147 ], [ 52.13839452166286, 44.075950173587465 ] ] ] } },
{ "type": "Feature", "properties": { "id": 80, "Лист1_": "Oqtumsuq" }, "geometry": { "type": "MultiLineString", "coordinates": [ [ [ 57.460570096625325, 44.940803704518864 ], [ 58.020507318574502, 44.74676605334836 ] ] ] } },
{ "type": "Feature", "properties": { "id": 1, "Лист1_": "Mug‘ojar" }, "geometry": { "type": "MultiLineString", "coordinates": [ [ [ 59.004555406653566, 49.730761721985111 ], [ 58.206229070409194, 47.535364297313095 ] ] ] } },
{ "type": "Feature", "properties": { "id": 3, "Лист1_": "Ulitov" }, "geometry": { "type": "MultiLineString", "coordinates": [ [ [ 67.398069803000638, 49.764025319328624 ], [ 66.688446393005648, 47.978878928559958 ] ] ] } },
{ "type": "Feature", "properties": { "id": 2, "Лист1_": "Ko‘kchatov" }, "geometry": { "type": "MultiLineString", "coordinates": [ [ [ 68.473592783774293, 53.234527308835375 ], [ 71.489492276253031, 52.214443656967568 ] ] ] } },
{ "type": "Feature", "properties": { "id": 6, "Лист1_": "Yermentov" }, "geometry": { "type": "MultiLineString", "coordinates": [ [ [ 74.645838068626588, 50.447777042500881 ], [ 76.863411224860954, 50.965210778955566 ] ] ] } },
{ "type": "Feature", "properties": { "id": 4, "Лист1_": "Qarqarali" }, "geometry": { "type": "MultiLineString", "coordinates": [ [ [ 74.424080753003196, 48.259771528349638 ], [ 77.351277319232565, 49.087665506677133 ] ] ] } },
{ "type": "Feature", "properties": { "id": 5, "Лист1_": "Chingiztov" }, "geometry": { "type": "MultiLineString", "coordinates": [ [ [ 80.662853232542531, 48.821556727929 ], [ 81.475963389828465, 47.505796655229936 ] ] ] } },
{ "type": "Feature", "properties": { "id": 16, "Лист1_": "Torbog'otog'" }, "geometry": { "type": "MultiLineString", "coordinates": [ [ [ 82.185586799823469, 47.239687876481817 ], [ 84.077915893143455, 46.958795276692129 ] ] ] } },
{ "type": "Feature", "properties": { "id": 15, "Лист1_": "Savur" }, "geometry": { "type": "MultiLineString", "coordinates": [ [ [ 84.35880849293315, 47.476229013146813 ], [ 85.748487670840021, 47.150984950232441 ] ] ] } },
{ "type": "Feature", "properties": { "id": 17, "Лист1_": "Jung‘oriya Olatovi" }, "geometry": { "type": "MultiLineString", "coordinates": [ [ [ 79.502323280779905, 45.007330899205826 ], [ 81.823383184305214, 45.399102156807231 ] ] ] } },
{ "type": "Feature", "properties": { "id": 23, "Лист1_": "Kungay Olatovi" }, "geometry": { "type": "MultiLineString", "coordinates": [ [ [ 76.412504683093331, 42.678879085159771 ], [ 77.521291261210521, 42.752798190367585 ], [ 78.038724997665213, 42.848893027137741 ] ] ] } },
{ "type": "Feature", "properties": { "id": 22, "Лист1_": "Iliorti Olatovi" }, "geometry": { "type": "MultiLineString", "coordinates": [ [ [ 76.368153219968647, 42.885852579741645 ], [ 77.942630160895064, 43.13717753744821 ] ] ] } },
{ "type": "Feature", "properties": { "id": 20, "Лист1_": "Jeltov" }, "geometry": { "type": "MultiLineString", "coordinates": [ [ [ 74.701277397532465, 43.584388123955478 ], [ 75.640050033671685, 43.096522029583916 ] ] ] } },
{ "type": "Feature", "properties": { "id": 21, "Лист1_": "Aytov" }, "geometry": { "type": "MultiLineString", "coordinates": [ [ [ 75.344373612840442, 43.096522029583916 ], [ 76.127916128043253, 42.823021340315002 ] ] ] } },
{ "type": "Feature", "properties": { "id": 38, "Лист1_": "Terskay" }, "geometry": { "type": "MultiLineString", "coordinates": [ [ [ 77.369757095534524, 41.950775898862815 ], [ 78.966409768023283, 42.4682096353175 ] ] ] } },
{ "type": "Feature", "properties": { "id": 18, "Лист1_": "Ketmon" }, "geometry": { "type": "MultiLineString", "coordinates": [ [ [ 80.023452972495008, 43.259144061041106 ], [ 81.937957797377365, 43.355238897811262 ] ] ] } },
{ "type": "Feature", "properties": { "id": 19, "Лист1_": "Merdional" }, "geometry": { "type": "MultiLineString", "coordinates": [ [ [ 80.134331630306718, 42.985643371772191 ], [ 79.469059683436413, 42.261236140735626 ] ] ] } },
{ "type": "Feature", "properties": { "id": 39, "Лист1_": "Sarijas" }, "geometry": { "type": "MultiLineString", "coordinates": [ [ [ 79.350789115103908, 41.913816346258905 ], [ 80.097372077702815, 42.194708946048593 ] ] ] } },
{ "type": "Feature", "properties": { "id": 41, "Лист1_": "Ko‘kshag'altov" }, "geometry": { "type": "MultiLineString", "coordinates": [ [ [ 78.463759852610153, 41.403774520324994 ], [ 79.276870009896086, 41.802937688447187 ] ] ] } },
{ "type": "Feature", "properties": { "id": 40, "Лист1_": "Oqshiyrak" }, "geometry": { "type": "MultiLineString", "coordinates": [ [ [ 78.123731968654198, 41.618139925427649 ], [ 78.885098752294681, 42.150357482923901 ] ] ] } },
{ "type": "Feature", "properties": { "id": 43, "Лист1_": "Norintov" }, "geometry": { "type": "MultiLineString", "coordinates": [ [ [ 76.14837932598509, 41.363545996389512 ], [ 77.440715033587892, 41.378529598796504 ] ] ] } },
{ "type": "Feature", "properties": { "id": 44, "Лист1_": "Yetimtov" }, "geometry": { "type": "MultiLineString", "coordinates": [ [ [ 75.968576097101248, 41.685693448139745 ], [ 76.852608639113612, 41.580808231290817 ], [ 77.556837952242091, 41.670709845732752 ] ] ] } },
{ "type": "Feature", "properties": { "id": 45, "Лист1_": "Otboshi" }, "geometry": { "type": "MultiLineString", "coordinates": [ [ [ 75.129494362309856, 40.711759291685446 ], [ 76.283231747648017, 41.101332954267164 ] ] ] } },
{ "type": "Feature", "properties": { "id": 46, "Лист1_": "Moldatovs" }, "geometry": { "type": "MultiLineString", "coordinates": [ [ [ 73.96077337456471, 41.071365749453179 ], [ 74.275429025111478, 40.906546122976295 ], [ 74.635035482879218, 40.906546122976295 ], [ 75.114510759902871, 40.981464135011244 ], [ 75.444150012856625, 41.176250966302099 ] ] ] } },
{ "type": "Feature", "properties": { "id": 37, "Лист1_": "Farg‘ona" }, "geometry": { "type": "MultiLineString", "coordinates": [ [ [ 73.001822820517418, 41.663218044529273 ], [ 74.395297844367406, 40.689283888074982 ] ] ] } },
{ "type": "Feature", "properties": { "id": 47, "Лист1_": "Oloy" }, "geometry": { "type": "MultiLineString", "coordinates": [ [ [ 74.706207594312431, 40.194825008644351 ], [ 71.559651088844717, 39.730333334027684 ] ] ] } },
{ "type": "Feature", "properties": { "id": 48, "Лист1_": "Turkiston" }, "geometry": { "type": "MultiLineString", "coordinates": [ [ [ 71.454765871995789, 39.385710478666937 ], [ 68.952504270028612, 39.61046451477177 ] ] ] } },
{ "type": "Feature", "properties": { "id": 49, "Лист1_": "Morg'uzor" }, "geometry": { "type": "MultiLineString", "coordinates": [ [ [ 68.308209366528061, 39.685382526806713 ], [ 67.896160300335865, 40.037497183370952 ] ] ] } },
{ "type": "Feature", "properties": { "id": 50, "Лист1_": "Nurota" }, "geometry": { "type": "MultiLineString", "coordinates": [ [ [ 65.978259192241254, 40.659316683261004 ], [ 67.446652228126183, 40.187333207440844 ] ] ] } },
{ "type": "Feature", "properties": { "id": 26, "Лист1_": "Talas Olatovi" }, "geometry": { "type": "MultiLineString", "coordinates": [ [ [ 70.638159540814854, 42.457348972099716 ], [ 72.586027853723451, 42.187644128773911 ] ] ] } },
{ "type": "Feature", "properties": { "id": 24, "Лист1_": "Qirg‘iz" }, "geometry": { "type": "MultiLineString", "coordinates": [ [ [ 71.836847733373986, 42.801971827460463 ], [ 75.612715539935252, 42.412398164878745 ] ] ] } },
{ "type": "Feature", "properties": { "id": 33, "Лист1_": "Susamir" }, "geometry": { "type": "MultiLineString", "coordinates": [ [ [ 73.350191576479887, 42.232594935994875 ], [ 74.279174925713221, 41.753119658971222 ] ] ] } },
{ "type": "Feature", "properties": { "id": 34, "Лист1_": "Jumag‘ol" }, "geometry": { "type": "MultiLineString", "coordinates": [ [ [ 74.309142130527192, 42.022824502297027 ], [ 74.9983878412487, 42.187644128773911 ] ] ] } },
{ "type": "Feature", "properties": { "id": 28, "Лист1_": "Qorjantog‘" }, "geometry": { "type": "MultiLineString", "coordinates": [ [ [ 69.554865956072433, 41.570541026832714 ], [ 69.951931419857644, 41.855229472565512 ] ] ] } },
{ "type": "Feature", "properties": { "id": 27, "Лист1_": "Ugom" }, "geometry": { "type": "MultiLineString", "coordinates": [ [ [ 70.081020547046251, 41.840653460886408 ], [ 70.920102281837629, 42.350095942724039 ] ] ] } },
{ "type": "Feature", "properties": { "id": 29, "Лист1_": "Piskom" }, "geometry": { "type": "MultiLineString", "coordinates": [ [ [ 70.110987751860222, 41.56345681635711 ], [ 71.279708739605368, 42.327620539113553 ] ] ] } },
{ "type": "Feature", "properties": { "id": 30, "Лист1_": "Sandalash" }, "geometry": { "type": "MultiLineString", "coordinates": [ [ [ 70.388184396389519, 41.383653587473241 ], [ 71.526938179320695, 42.245210725875111 ] ] ] } },
{ "type": "Feature", "properties": { "id": 31, "Лист1_": "Chotqol" }, "geometry": { "type": "MultiLineString", "coordinates": [ [ [ 72.013905257547833, 42.245210725875111 ], [ 70.822708866192201, 41.286260171827806 ] ] ] } },
{ "type": "Feature", "properties": { "id": 35, "Лист1_": "Otaynak" }, "geometry": { "type": "MultiLineString", "coordinates": [ [ [ 72.08133146837929, 42.080391099398234 ], [ 72.455921528554015, 41.735768244037487 ] ] ] } },
{ "type": "Feature", "properties": { "id": 10, "Лист1_": "Bukantog'" }, "geometry": { "type": "MultiLineString", "coordinates": [ [ [ 63.406421119611757, 42.563154304212226 ], [ 63.724822670760275, 42.536933 ] ] ] } },
{ "type": "Feature", "properties": { "id": 11, "Лист1_": "Tomditog'" }, "geometry": { "type": "MultiLineString", "coordinates": [ [ [ 64.269405004390151, 41.542818521840829 ], [ 64.503523791999356, 41.564357450300875 ] ] ] } },
{ "type": "Feature", "properties": { "id": 12, "Лист1_": "Ovminzatog'" }, "geometry": { "type": "MultiLineString", "coordinates": [ [ [ 63.509774435257185, 41.165474140583946 ], [ 63.710180117450662, 41.142998736973468 ] ] ] } },
{ "type": "Feature", "properties": { "id": 13, "Лист1_": "Quljuqtog‘" }, "geometry": { "type": "MultiLineString", "coordinates": [ [ [ 63.32247940516983, 40.840517263382381 ], [ 63.921823501449396, 40.788074654957917 ] ] ] } },
{ "type": "Feature", "properties": { "id": 14, "Лист1_": "Aristantog‘" }, "geometry": { "type": "MultiLineString", "coordinates": [ [ [ 64.348856170048577, 42.233992287232375 ], [ 65.150478898822485, 42.586106943796615 ] ] ] } },
{ "type": "Feature", "properties": { "id": 25, "Лист1_": "Qoratov" }, "geometry": { "type": "MultiLineString", "coordinates": [ [ [ 67.457953669498835, 44.384139232635341 ], [ 69.158592542692105, 43.4776312870125 ] ] ] } },
{ "type": "Feature", "properties": { "id": 32, "Лист1_": "Qurama" }, "geometry": { "type": "MultiLineString", "coordinates": [ [ [ 69.517968268819104, 40.510723847046215 ], [ 70.829033479430649, 41.080100738511803 ] ] ] } },
{ "type": "Feature", "properties": { "id": 36, "Лист1_": "Buaboshota" }, "geometry": { "type": "MultiLineString", "coordinates": [ [ [ 72.423890518162366, 41.258414987965061 ], [ 72.77600517472662, 41.363300204813982 ], [ 72.94082480120349, 41.460693620459409 ], [ 72.970792006017476, 41.618021445732793 ] ] ] } },
{ "type": "Feature", "properties": { "id": 59, "Лист1_": "Oloyorti" }, "geometry": { "type": "MultiLineString", "coordinates": [ [ [ 72.09026386641213, 39.117387851970165 ], [ 74.502623853937379, 39.319666484464513 ] ] ] } },
{ "type": "Feature", "properties": { "id": 60, "Лист1_": "Darvoz" }, "geometry": { "type": "MultiLineString", "coordinates": [ [ [ 71.15378871597531, 38.210879906347316 ], [ 72.85442758916858, 38.66787977976049 ] ] ] } },
{ "type": "Feature", "properties": { "id": 61, "Лист1_": "Fanlar Akademiyasi" }, "geometry": { "type": "MultiLineString", "coordinates": [ [ [ 72.262677078582982, 39.024591007822707 ], [ 72.052906644885127, 38.642509146444482 ] ] ] } },
{ "type": "Feature", "properties": { "id": 62, "Лист1_": "Vanch" }, "geometry": { "type": "MultiLineString", "coordinates": [ [ [ 70.966595470378408, 37.316460333425958 ], [ 73.334004650682687, 38.125574863403372 ] ] ] } },
{ "type": "Feature", "properties": { "id": 63, "Лист1_": "Yozg‘ulom" }, "geometry": { "type": "MultiLineString", "coordinates": [ [ [ 71.446070747402061, 36.836985056402312 ], [ 71.670824783506887, 36.866952261216291 ], [ 72.764627759217092, 37.316460333425965 ], [ 74.083184771032137, 37.331443935832951 ] ] ] } },
{ "type": "Feature", "properties": { "id": 64, "Лист1_": "Rushon" }, "geometry": { "type": "MultiLineString", "coordinates": [ [ [ 71.513496958233517, 36.200181954105268 ], [ 72.91446378328699, 36.799526050384834 ], [ 73.933348746962253, 36.792034249181341 ] ] ] } },
{ "type": "Feature", "properties": { "id": 65, "Лист1_": "Shug‘non" }, "geometry": { "type": "MultiLineString", "coordinates": [ [ [ 71.768218199152329, 35.675755869860666 ], [ 72.330103289414424, 36.162722948087811 ], [ 73.4613652711421, 36.11777214086684 ] ] ] } },
{ "type": "Feature", "properties": { "id": 66, "Лист1_": "Shohdara" }, "geometry": { "type": "MultiLineString", "coordinates": [ [ [ 71.458563082659282, 37.071307712390784 ], [ 72.425005437910073, 37.355996158123581 ] ] ] } },
{ "type": "Feature", "properties": { "id": 67, "Лист1_": "Muzqol" }, "geometry": { "type": "MultiLineString", "coordinates": [ [ [ 73.209370349453209, 38.708180596389511 ], [ 73.681353825273362, 38.738147801203489 ], [ 74.730205993762596, 38.685705192779025 ] ] ] } },
{ "type": "Feature", "properties": { "id": 68, "Лист1_": "Shimoliy Alichur" }, "geometry": { "type": "MultiLineString", "coordinates": [ [ [ 73.329239168709137, 37.861607060394633 ], [ 74.56538636728574, 37.831639855580654 ] ] ] } },
{ "type": "Feature", "properties": { "id": 69, "Лист1_": "Janubiy Alichur" }, "geometry": { "type": "MultiLineString", "coordinates": [ [ [ 73.404157180744079, 37.037508928010233 ], [ 74.707730590152138, 37.187344952080124 ] ] ] } },
{ "type": "Feature", "properties": { "id": 70, "Лист1_": "Sariqol" }, "geometry": { "type": "MultiLineString", "coordinates": [ [ [ 74.529368801203489, 38.889317042122286 ], [ 74.784090042122301, 37.53330102428977 ] ] ] } },
{ "type": "Feature", "properties": { "id": 71, "Лист1_": "Hindiqush" }, "geometry": { "type": "MultiLineString", "coordinates": [ [ [ 73.593613144419351, 35.840084349453221 ], [ 68.379319506787141, 35.33064186761559 ] ] ] } },
{ "type": "Feature", "properties": { "id": 51, "Лист1_": "Zarafshon" }, "geometry": { "type": "MultiLineString", "coordinates": [ [ [ 69.742827325823129, 39.166444083804819 ], [ 66.656205229983371, 39.406181722316646 ] ] ] } },
{ "type": "Feature", "properties": { "id": 52, "Лист1_": "Hisor" }, "geometry": { "type": "MultiLineString", "coordinates": [ [ [ 69.763312240698895, 38.970079608424463 ], [ 67.485804674836558, 38.460637126586839 ], [ 67.335968650766659, 38.400702716958882 ] ] ] } },
{ "type": "Feature", "properties": { "id": 53, "Лист1_": "Boysuntog‘" }, "geometry": { "type": "MultiLineString", "coordinates": [ [ [ 67.889683463785204, 39.070559960776478 ], [ 67.406462286159794, 38.632289590372046 ] ] ] } },
{ "type": "Feature", "properties": { "id": 54, "Лист1_": "Ko‘hitangtog‘" }, "geometry": { "type": "MultiLineString", "coordinates": [ [ [ 67.24164265968291, 38.905740334299601 ], [ 67.001905021171083, 38.456232262089934 ], [ 66.492462539333459, 37.527248912856606 ] ] ] } },
{ "type": "Feature", "properties": { "id": 56, "Лист1_": "Kofirnigan" }, "geometry": { "type": "MultiLineString", "coordinates": [ [ [ 68.53023246668397, 38.336363442834021 ], [ 68.050757189660317, 37.512265310449614 ] ] ] } },
{ "type": "Feature", "properties": { "id": 55, "Лист1_": "Bobotog‘" }, "geometry": { "type": "MultiLineString", "coordinates": [ [ [ 68.430616515043639, 38.448261966793957 ], [ 67.951141238019986, 37.732794951860228 ] ] ] } },
{ "type": "Feature", "properties": { "id": 57, "Лист1_": "Vaxsh" }, "geometry": { "type": "MultiLineString", "coordinates": [ [ [ 71.916242090262088, 39.488786787609214 ], [ 71.35061109939825, 39.241557347893888 ], [ 70.837422716958869, 39.072991820815261 ] ] ] } },
{ "type": "Feature", "properties": { "id": 58, "Лист1_": "Pyotr I" }, "geometry": { "type": "MultiLineString", "coordinates": [ [ [ 71.277712855360747, 39.092445713840192 ], [ 70.678368759081181, 38.818994969912644 ] ] ] } },
{ "type": "Feature", "properties": { "id": 42, "Лист1_": "Burkalday" }, "geometry": { "type": "MultiLineString", "coordinates": [ [ [ 78.39562099026206, 41.305027809026178 ], [ 77.698883478337066, 41.155191784956287 ], [ 77.698883478337066, 41.155191784956287 ] ] ] } }
]
}
